*******************************************************************************
 Revised: Jan 21, 2015   Voyager 2 Spacecraft (interplanetary) / (Sun)     -32
                         http://www.jpl.nasa.gov/missions/voyager-2/

 BACKGROUND
   See the web-page above for extensive information on the Voyager Mission.

 SPACECRAFT TRAJECTORY:
   This trajectory is composed of two merged sections:

     #1) 1977-Aug-20 to 1989-Oct-01:
          A patched conic mission-design type trajectory in which the conics 
          were constructed to approximately match specific events (such 
          satellite encounters), providing a rough accuracy. 

     #2) 1989-Oct-01 to 2031-Jan-01 (pfile_m05016u_V0.2):
          Time extended trajectory from Voyager Navigation
*******************************************************************************
 
 
*******************************************************************************
Ephemeris / WWW_USER Thu Aug 15 23:20:09 2019 Pasadena, USA      / Horizons    
*******************************************************************************
Target body name: Voyager 2 (spacecraft) (-32)    {source: Voyager_2}
Center body name: Solar System Barycenter (0)     {source: DE431mx}
Center-site name: BODYCENTRIC
*******************************************************************************
Start time      : A.D. 1977-Aug-21 00:00:00.0000 UT      
Stop  time      : A.D. 2030-Jan-01 00:00:00.0000 UT      
Step-size       : 1440 minutes
*******************************************************************************
Target pole/equ : No model available
Target radii    : (unavailable)                                                
Center geodetic : 0.00000000,0.00000000,0.0000000 {E-lon(deg),Lat(deg),Alt(km)}
Center cylindric: 0.00000000,0.00000000,0.0000000 {E-lon(deg),Dxy(km),Dz(km)}
Center pole/equ : ICRF/J2000.0
Center radii    : (undefined)                                                  
Target primary  : Earth
Vis. interferer : None
Rel. light bend : Sun                             {source: Voyager_2}
Rel. lght bnd GM: 1.3271E+11 km^3/s^2                                          
Atmos refraction: NO (AIRLESS)
RA format       : DEG
Time format     : CAL 
EOP file        : eop.190815.p191106                                           
EOP coverage    : DATA-BASED 1962-JAN-20 TO 2019-AUG-15. PREDICTS-> 2019-NOV-05
Units conversion: 1 au= 149597870.700 km, c= 299792.458 km/s, 1 day= 86400.0 s 
Table cut-offs 1: Elevation (-90.0deg=NO ),Airmass     n.a.    , Daylight (NO )
Table cut-offs 2: Solar elongation (  0.0,180.0=NO ),Local Hour Angle( 0.0=NO )
Table cut-offs 3: RA/DEC angular rate (     0.0=NO )                           
*******************************************************************************
 Date__(UT)__HR:MN:SS                delta     GlxLon     GlxLat
****************************************************************
$$SOE
 1996-Apr-07 00:00:00     7.2514890282E+09 356.397358 -22.587238
 1996-Apr-08 00:00:00     7.2527074414E+09 356.392848 -22.590382
 1996-Apr-09 00:00:00     7.2539258958E+09 356.388341 -22.593524
 1996-Apr-10 00:00:00     7.2551443915E+09 356.383834 -22.596666
 1996-Apr-11 00:00:00     7.2563629283E+09 356.379329 -22.599806
 1996-Apr-12 00:00:00     7.2575815064E+09 356.374825 -22.602945
 1996-Apr-13 00:00:00     7.2588001255E+09 356.370323 -22.606083
 1996-Apr-14 00:00:00     7.2600187858E+09 356.365822 -22.609220
 1996-Apr-15 00:00:00     7.2612374873E+09 356.361322 -22.612355
 1996-Apr-16 00:00:00     7.2624562297E+09 356.356823 -22.615490
 1996-Apr-17 00:00:00     7.2636750133E+09 356.352326 -22.618623
 1996-Apr-18 00:00:00     7.2648938378E+09 356.347830 -22.621755
 1996-Apr-19 00:00:00     7.2661127034E+09 356.343335 -22.624886
 1996-Apr-20 00:00:00     7.2673316100E+09 356.338842 -22.628016
 1996-Apr-21 00:00:00     7.2685505575E+09 356.334350 -22.631144
 1996-Apr-22 00:00:00     7.2697695460E+09 356.329859 -22.634271
 1996-Apr-23 00:00:00     7.2709885753E+09 356.325369 -22.637398
 1996-Apr-24 00:00:00     7.2722076456E+09 356.320881 -22.640523
 1996-Apr-25 00:00:00     7.2734267567E+09 356.316394 -22.643646
 1996-Apr-26 00:00:00     7.2746459087E+09 356.311909 -22.646769
 1996-Apr-27 00:00:00     7.2758651015E+09 356.307424 -22.649890
 1996-Apr-28 00:00:00     7.2770843350E+09 356.302941 -22.653011
 1996-Apr-29 00:00:00     7.2783036094E+09 356.298460 -22.656130
 1996-Apr-30 00:00:00     7.2795229245E+09 356.293979 -22.659248
 1996-May-01 00:00:00     7.2807422803E+09 356.289500 -22.662365
 1996-May-02 00:00:00     7.2819616768E+09 356.285022 -22.665480
 1996-May-03 00:00:00     7.2831811140E+09 356.280546 -22.668595
 1996-May-04 00:00:00     7.2844005918E+09 356.276071 -22.671708
 1996-May-05 00:00:00     7.2856201103E+09 356.271597 -22.674820
 1996-May-06 00:00:00     7.2868396693E+09 356.267124 -22.677931
 1996-May-07 00:00:00     7.2880592690E+09 356.262653 -22.681041
 1996-May-08 00:00:00     7.2892789092E+09 356.258183 -22.684149
 1996-May-09 00:00:00     7.2904985899E+09 356.253714 -22.687257
 1996-May-10 00:00:00     7.2917183112E+09 356.249246 -22.690363
 1996-May-11 00:00:00     7.2929380729E+09 356.244780 -22.693468
 1996-May-12 00:00:00     7.2941578751E+09 356.240315 -22.696572
 1996-May-13 00:00:00     7.2953777178E+09 356.235852 -22.699675
 1996-May-14 00:00:00     7.2965976009E+09 356.231390 -22.702777
 1996-May-15 00:00:00     7.2978175243E+09 356.226929 -22.705877
 1996-May-16 00:00:00     7.2990374881E+09 356.222469 -22.708977
 1996-May-17 00:00:00     7.3002574923E+09 356.218010 -22.712075
 1996-May-18 00:00:00     7.3014775368E+09 356.213553 -22.715172
 1996-May-19 00:00:00     7.3026976216E+09 356.209098 -22.718268
 1996-May-20 00:00:00     7.3039177467E+09 356.204643 -22.721362
 1996-May-21 00:00:00     7.3051379120E+09 356.200190 -22.724456
 1996-May-22 00:00:00     7.3063581176E+09 356.195738 -22.727548
 1996-May-23 00:00:00     7.3075783633E+09 356.191287 -22.730639
 1996-May-24 00:00:00     7.3087986493E+09 356.186838 -22.733730
 1996-May-25 00:00:00     7.3100189754E+09 356.182389 -22.736818
 1996-May-26 00:00:00     7.3112393417E+09 356.177943 -22.739906
 1996-May-27 00:00:00     7.3124597480E+09 356.173497 -22.742993
 1996-May-28 00:00:00     7.3136801945E+09 356.169053 -22.746078
 1996-May-29 00:00:00     7.3149006810E+09 356.164610 -22.749163
 1996-May-30 00:00:00     7.3161212076E+09 356.160168 -22.752246
 1996-May-31 00:00:00     7.3173417742E+09 356.155728 -22.755328
 1996-Jun-01 00:00:00     7.3185623808E+09 356.151288 -22.758409
 1996-Jun-02 00:00:00     7.3197830273E+09 356.146851 -22.761488
 1996-Jun-03 00:00:00     7.3210037138E+09 356.142414 -22.764567
 1996-Jun-04 00:00:00     7.3222244403E+09 356.137979 -22.767644
 1996-Jun-05 00:00:00     7.3234452066E+09 356.133545 -22.770720
 1996-Jun-06 00:00:00     7.3246660129E+09 356.129112 -22.773796
 1996-Jun-07 00:00:00     7.3258868590E+09 356.124680 -22.776869
 1996-Jun-08 00:00:00     7.3271077449E+09 356.120250 -22.779942
 1996-Jun-09 00:00:00     7.3283286707E+09 356.115821 -22.783014
 1996-Jun-10 00:00:00     7.3295496362E+09 356.111394 -22.786084
 1996-Jun-11 00:00:00     7.3307706415E+09 356.106967 -22.789154
 1996-Jun-12 00:00:00     7.3319916866E+09 356.102542 -22.792222
 1996-Jun-13 00:00:00     7.3332127713E+09 356.098118 -22.795289
 1996-Jun-14 00:00:00     7.3344338958E+09 356.093696 -22.798355
 1996-Jun-15 00:00:00     7.3356550600E+09 356.089275 -22.801420
 1996-Jun-16 00:00:00     7.3368762638E+09 356.084855 -22.804484
 1996-Jun-17 00:00:00     7.3380975072E+09 356.080436 -22.807546
 1996-Jun-18 00:00:00     7.3393187903E+09 356.076018 -22.810607
 1996-Jun-19 00:00:00     7.3405401129E+09 356.071602 -22.813668
 1996-Jun-20 00:00:00     7.3417614751E+09 356.067187 -22.816727
 1996-Jun-21 00:00:00     7.3429828768E+09 356.062774 -22.819785
 1996-Jun-22 00:00:00     7.3442043181E+09 356.058361 -22.822842
 1996-Jun-23 00:00:00     7.3454257988E+09 356.053950 -22.825897
 1996-Jun-24 00:00:00     7.3466473190E+09 356.049540 -22.828952
 1996-Jun-25 00:00:00     7.3478688787E+09 356.045132 -22.832005
 1996-Jun-26 00:00:00     7.3490904778E+09 356.040724 -22.835057
 1996-Jun-27 00:00:00     7.3503121163E+09 356.036318 -22.838109
 1996-Jun-28 00:00:00     7.3515337942E+09 356.031914 -22.841159
 1996-Jun-29 00:00:00     7.3527555114E+09 356.027510 -22.844207
 1996-Jun-30 00:00:00     7.3539772680E+09 356.023108 -22.847255
 1996-Jul-01 00:00:00     7.3551990638E+09 356.018707 -22.850302
 1996-Jul-02 00:00:00     7.3564208990E+09 356.014307 -22.853347
 1996-Jul-03 00:00:00     7.3576427734E+09 356.009909 -22.856391
 1996-Jul-04 00:00:00     7.3588646871E+09 356.005511 -22.859435
 1996-Jul-05 00:00:00     7.3600866400E+09 356.001116 -22.862477
 1996-Jul-06 00:00:00     7.3613086321E+09 355.996721 -22.865518
 1996-Jul-07 00:00:00     7.3625306634E+09 355.992328 -22.868557
 1996-Jul-08 00:00:00     7.3637527338E+09 355.987935 -22.871596
 1996-Jul-09 00:00:00     7.3649748434E+09 355.983545 -22.874634
 1996-Jul-10 00:00:00     7.3661969921E+09 355.979155 -22.877670
 1996-Jul-11 00:00:00     7.3674191798E+09 355.974767 -22.880705
 1996-Jul-12 00:00:00     7.3686414067E+09 355.970379 -22.883740
 1996-Jul-13 00:00:00     7.3698636725E+09 355.965994 -22.886773
 1996-Jul-14 00:00:00     7.3710859774E+09 355.961609 -22.889805
 1996-Jul-15 00:00:00     7.3723083213E+09 355.957226 -22.892835
 1996-Jul-16 00:00:00     7.3735307042E+09 355.952844 -22.895865
 1996-Jul-17 00:00:00     7.3747531260E+09 355.948463 -22.898893
 1996-Jul-18 00:00:00     7.3759755867E+09 355.944083 -22.901921
 1996-Jul-19 00:00:00     7.3771980864E+09 355.939705 -22.904947
 1996-Jul-20 00:00:00     7.3784206249E+09 355.935328 -22.907972
 1996-Jul-21 00:00:00     7.3796432023E+09 355.930952 -22.910996
 1996-Jul-22 00:00:00     7.3808658185E+09 355.926578 -22.914019
 1996-Jul-23 00:00:00     7.3820884736E+09 355.922204 -22.917041
